{
  "type": "FeatureCollection",
  "features": [
    {
      "type": "Feature",
      "properties": {
        "norad_id": 30080,
        "name": "FENGYUN 1C DEB",
        "group": "fengyun-1c-debris",
        "lat": 42.69423827276818,
        "lon": 169.4925338945818,
        "alt_km": 895.9778671184868,
        "timestamp": "2025-12-27T07:26:25.495513+00:00",
        "meta_object_name": "FENGYUN 1C DEB",
        "meta_object_id": "1999-025QH",
        "meta_epoch": "2025-12-26T11:05:31.336800",
        "meta_mean_motion": 14.10836944,
        "meta_eccentricity": 0.013339,
        "meta_inclination": 98.6998,
        "meta_ra_of_asc_node": 340.5505,
        "meta_arg_of_pericenter": 21.85,
        "meta_mean_anomaly": 129.5607,
        "meta_ephemeris_type": 0,
        "meta_classification_type": "U",
        "meta_norad_cat_id": 30080,
        "meta_element_set_no": 999,
        "meta_rev_at_epoch": 97431,
        "meta_bstar": 0.00031237,
        "meta_mean_motion_dot": 5.66e-06,
        "meta_mean_motion_ddot": 0,
        "tle_line1": "1 30080U 99025QH  25360.46216825  .00000566  00000+0  31237-3 0  9991",
        "tle_line2": "2 30080  98.6998 340.5505 0133390  21.8500 129.5607 14.10836944974313"
      },
      "geometry": {
        "type": "Point",
        "coordinates": [
          169.4925338945818,
          42.69423827276818
        ]
      }
    },
    {
      "type": "Feature",
      "properties": {
        "norad_id": 30081,
        "name": "FENGYUN 1C DEB",
        "group": "fengyun-1c-debris",
        "lat": 35.01499620583498,
        "lon": -9.136429041840488,
        "alt_km": 903.5521203297221,
        "timestamp": "2025-12-27T07:26:25.495523+00:00",
        "meta_object_name": "FENGYUN 1C DEB",
        "meta_object_id": "1999-025QJ",
        "meta_epoch": "2025-12-26T22:56:37.266432",
        "meta_mean_motion": 13.98296833,
        "meta_eccentricity": 0.00756881,
        "meta_inclination": 98.9242,
        "meta_ra_of_asc_node": 356.8393,
        "meta_arg_of_pericenter": 299.6167,
        "meta_mean_anomaly": 113.9547,
        "meta_ephemeris_type": 0,
        "meta_classification_type": "U",
        "meta_norad_cat_id": 30081,
        "meta_element_set_no": 999,
        "meta_rev_at_epoch": 96553,
        "meta_bstar": 0.0003312877,
        "meta_mean_motion_dot": 4.41e-06,
        "meta_mean_motion_ddot": 0,
        "tle_line1": "1 30081U 99025QJ  25360.95598688  .00000441  00000+0  33129-3 0  9990",
        "tle_line2": "2 30081  98.9242 356.8393 0075688 299.6167 113.9547 13.98296833965539"
      },
      "geometry": {
        "type": "Point",
        "coordinates": [
          -9.136429041840488,
          35.01499620583498
        ]
      }
    },
    {
      "type": "Feature",
      "properties": {
        "norad_id": 30082,
        "name": "FENGYUN 1C DEB",
        "group": "fengyun-1c-debris",
        "lat": -63.66348139880284,
        "lon": -50.34085216323319,
        "alt_km": 574.3731860502157,
        "timestamp": "2025-12-27T07:26:25.495534+00:00",
        "meta_object_name": "FENGYUN 1C DEB",
        "meta_object_id": "1999-025QK",
        "meta_epoch": "2025-12-26T19:03:20.754144",
        "meta_mean_motion": 15.15748083,
        "meta_eccentricity": 0.00705144,
        "meta_inclination": 98.8191,
        "meta_ra_of_asc_node": 290.782,
        "meta_arg_of_pericenter": 119.7449,
        "meta_mean_anomaly": 241.0819,
        "meta_ephemeris_type": 0,
        "meta_classification_type": "U",
        "meta_norad_cat_id": 30082,
        "meta_element_set_no": 999,
        "meta_rev_at_epoch": 1506,
        "meta_bstar": 0.00125319,
        "meta_mean_motion_dot": 0.00025439,
        "meta_mean_motion_ddot": 0,
        "tle_line1": "1 30082U 99025QK  25360.79399021  .00025439  00000+0  12532-2 0  9991",
        "tle_line2": "2 30082  98.8191 290.7820 0070514 119.7449 241.0819 15.15748083 15060"
      },
      "geometry": {
        "type": "Point",
        "coordinates": [
          -50.34085216323319,
          -63.66348139880284
        ]
      }
    },
    {
      "type": "Feature",
      "properties": {
        "norad_id": 30086,
        "name": "FENGYUN 1C DEB",
        "group": "fengyun-1c-debris",
        "lat": 63.947860254153994,
        "lon": -126.58148496914171,
        "alt_km": 831.9787803707413,
        "timestamp": "2025-12-27T07:26:25.495544+00:00",
        "meta_object_name": "FENGYUN 1C DEB",
        "meta_object_id": "1999-025QP",
        "meta_epoch": "2025-12-26T21:27:42.920064",
        "meta_mean_motion": 14.03848464,
        "meta_eccentricity": 0.00619784,
        "meta_inclination": 98.9093,
        "meta_ra_of_asc_node": 34.2955,
        "meta_arg_of_pericenter": 95.4103,
        "meta_mean_anomaly": 78.7956,
        "meta_ephemeris_type": 0,
        "meta_classification_type": "U",
        "meta_norad_cat_id": 30086,
        "meta_element_set_no": 999,
        "meta_rev_at_epoch": 96894,
        "meta_bstar": 0.00026172812,
        "meta_mean_motion_dot": 3.77e-06,
        "meta_mean_motion_ddot": 0,
        "tle_line1": "1 30086U 99025QP  25360.89424676  .00000377  00000+0  26173-3 0  9992",
        "tle_line2": "2 30086  98.9093  34.2955 0061978  95.4103  78.7956 14.03848464968948"
      },
      "geometry": {
        "type": "Point",
        "coordinates": [
          -126.58148496914171,
          63.947860254153994
        ]
      }
    },
    {
      "type": "Feature",
      "properties": {
        "norad_id": 30087,
        "name": "FENGYUN 1C DEB",
        "group": "fengyun-1c-debris",
        "lat": -68.04508450667436,
        "lon": -168.29070855377455,
        "alt_km": 942.7437047203784,
        "timestamp": "2025-12-27T07:26:25.495554+00:00",
        "meta_object_name": "FENGYUN 1C DEB",
        "meta_object_id": "1999-025QQ",
        "meta_epoch": "2025-12-26T21:02:53.415168",
        "meta_mean_motion": 14.35730383,
        "meta_eccentricity": 0.02303245,
        "meta_inclination": 98.3789,
        "meta_ra_of_asc_node": 32.734,
        "meta_arg_of_pericenter": 79.3358,
        "meta_mean_anomaly": 93.0837,
        "meta_ephemeris_type": 0,
        "meta_classification_type": "U",
        "meta_norad_cat_id": 30087,
        "meta_element_set_no": 999,
        "meta_rev_at_epoch": 98898,
        "meta_bstar": 0.00026660201,
        "meta_mean_motion_dot": 9.94e-06,
        "meta_mean_motion_ddot": 0,
        "tle_line1": "1 30087U 99025QQ  25360.87700712  .00000994  00000+0  26660-3 0  9995",
        "tle_line2": "2 30087  98.3789  32.7340 0230324  79.3358  93.0837 14.35730383988981"
      },
      "geometry": {
        "type": "Point",
        "coordinates": [
          -168.29070855377455,
          -68.04508450667436
        ]
      }
    },
    {
      "type": "Feature",
      "properties": {
        "norad_id": 30088,
        "name": "FENGYUN 1C DEB",
        "group": "fengyun-1c-debris",
        "lat": 23.17636729624994,
        "lon": 168.7605869658782,
        "alt_km": 672.2471736376419,
        "timestamp": "2025-12-27T07:26:25.495564+00:00",
        "meta_object_name": "FENGYUN 1C DEB",
        "meta_object_id": "1999-025QR",
        "meta_epoch": "2025-12-26T22:36:20.350944",
        "meta_mean_motion": 14.35941894,
        "meta_eccentricity": 0.02012515,
        "meta_inclination": 98.356,
        "meta_ra_of_asc_node": 344.7959,
        "meta_arg_of_pericenter": 204.8152,
        "meta_mean_anomaly": 211.4847,
        "meta_ephemeris_type": 0,
        "meta_classification_type": "U",
        "meta_norad_cat_id": 30088,
        "meta_element_set_no": 999,
        "meta_rev_at_epoch": 98876,
        "meta_bstar": 0.00030956083,
        "meta_mean_motion_dot": 1.082e-05,
        "meta_mean_motion_ddot": 0,
        "tle_line1": "1 30088U 99025QR  25360.94190221  .00001082  00000+0  30956-3 0  9994",
        "tle_line2": "2 30088  98.3560 344.7959 0201251 204.8152 211.4847 14.35941894988769"
      },
      "geometry": {
        "type": "Point",
        "coordinates": [
          168.7605869658782,
          23.17636729624994
        ]
      }
    },
    {
      "type": "Feature",
      "properties": {
        "norad_id": 30089,
        "name": "FENGYUN 1C DEB",
        "group": "fengyun-1c-debris",
        "lat": -74.69431567432784,
        "lon": 52.096712292445204,
        "alt_km": 797.7017906588135,
        "timestamp": "2025-12-27T07:26:25.495575+00:00",
        "meta_object_name": "FENGYUN 1C DEB",
        "meta_object_id": "1999-025QS",
        "meta_epoch": "2025-12-26T17:04:19.405344",
        "meta_mean_motion": 14.30321841,
        "meta_eccentricity": 0.00739604,
        "meta_inclination": 98.9037,
        "meta_ra_of_asc_node": 266.4303,
        "meta_arg_of_pericenter": 169.0535,
        "meta_mean_anomaly": 246.6113,
        "meta_ephemeris_type": 0,
        "meta_classification_type": "U",
        "meta_norad_cat_id": 30089,
        "meta_element_set_no": 999,
        "meta_rev_at_epoch": 98679,
        "meta_bstar": 0.00023049186,
        "meta_mean_motion_dot": 5.7e-06,
        "meta_mean_motion_ddot": 0,
        "tle_line1": "1 30089U 99025QS  25360.71133571  .00000570  00000+0  23049-3 0  9991",
        "tle_line2": "2 30089  98.9037 266.4303 0073960 169.0535 246.6113 14.30321841986795"
      },
      "geometry": {
        "type": "Point",
        "coordinates": [
          52.096712292445204,
          -74.69431567432784
        ]
      }
    }
  ]
}